name,source,collection_date,satellite_number,classification,launch_year,launch_number,launch_piece,epoch_year,epoch_day,inclination_deg,right_ascension_deg,eccentricity,argument_of_perigee_deg,mean_anomaly_deg,mean_motion,orbital_period_minutes,approximate_altitude_km,mean_motion_derivative,mean_motion_second_derivative,drag_term,element_set_number,revolution_number,line1,line2,category
STARLINK-30329,celestrak_active,2025-07-29T17:08:40.691869,57635,U,2023,122,D,2025,210.49329144,43.0029,227.7346,0.0001639,300.7822,59.2859,15.02536302,95.83795067601635,0,5.2e-06,0.0,0.00053556,999,10860,1 57635U 23122D   25210.49329144  .00000520  00000+0  53556-4 0  9996,2 57635  43.0029 227.7346 0001639 300.7822  59.2859 15.02536302108608,important
STARLINK-30330,celestrak_active,2025-07-29T17:08:40.691874,57636,U,2023,122,E,2025,210.42348659,43.0023,228.073,0.000137,283.9846,76.0844,15.02534432,95.83806995246283,0,8.2e-07,0.0,0.00021126,999,10859,1 57636U 23122E   25210.42348659  .00000082  00000+0  21126-4 0  9993,2 57636  43.0023 228.0730 0001370 283.9846  76.0844 15.02534432108595,important
STARLINK-30311,celestrak_active,2025-07-29T17:08:40.691880,57637,U,2023,122,F,2025,210.41682209,43.0014,228.0245,0.000166,280.5903,79.4752,15.02534276,95.83807990281082,0,-2.41e-06,0.0,-2.7731000000000003e-05,999,10859,1 57637U 23122F   25210.41682209 -.00000241  00000+0 -27731-5 0  9993,2 57637  43.0014 228.0245 0001660 280.5903  79.4752 15.02534276108597,important
STARLINK-30328,celestrak_active,2025-07-29T17:08:40.691885,57638,U,2023,122,G,2025,210.49790224,43.0022,214.127,0.0001582,310.9842,49.0863,15.02535324,95.83801305692299,0,2.89e-06,0.0,0.0003644,999,10875,1 57638U 23122G   25210.49790224  .00000289  00000+0  36440-4 0  9995,2 57638  43.0022 214.1270 0001582 310.9842  49.0863 15.02535324108753,important
STARLINK-30326,celestrak_active,2025-07-29T17:08:40.691890,57639,U,2023,122,H,2025,210.44667583,43.0018,227.3838,0.0001806,282.7392,77.3248,15.02535376,95.83800974014471,0,-1.8e-06,0.0,1.7349000000000003e-05,999,10860,1 57639U 23122H   25210.44667583 -.00000180  00000+0  17349-5 0  9991,2 57639  43.0018 227.3838 0001806 282.7392  77.3248 15.02535376108602,important
STARLINK-30324,celestrak_active,2025-07-29T17:08:40.691897,57640,U,2023,122,J,2025,210.41016778,43.002,227.9747,0.0001346,279.9991,80.0699,15.02533677,95.83811810961492,0,-6e-08,0.0,0.000146,999,10859,1 57640U 23122J   25210.41016778 -.00000006  00000+0  14600-4 0  9997,2 57640  43.0020 227.9747 0001346 279.9991  80.0699 15.02533677108595,important
STARLINK-30312,celestrak_active,2025-07-29T17:08:40.691906,57641,U,2023,122,K,2025,210.40683742,43.0026,227.9482,0.0001621,278.6718,81.3941,15.02535785,95.83798365241597,0,8.7e-07,0.0,0.00021507,999,10859,1 57641U 23122K   25210.40683742  .00000087  00000+0  21507-4 0  9990,2 57641  43.0026 227.9482 0001621 278.6718  81.3941 15.02535785108593,important
STARLINK-30263,celestrak_active,2025-07-29T17:08:40.691911,57642,U,2023,122,L,2025,210.40017762,43.0025,227.8987,0.0001359,281.9142,78.1548,15.02534179,95.83808608988721,0,-2.01e-06,0.0,2.1141e-06,999,10859,1 57642U 23122L   25210.40017762 -.00000201  00000+0  21141-6 0  9999,2 57642  43.0025 227.8987 0001359 281.9142  78.1548 15.02534179108591,important
STARLINK-30280,celestrak_active,2025-07-29T17:08:40.691917,57643,U,2023,122,M,2025,210.45666627,43.0016,227.4639,0.0001484,281.2122,78.8554,15.02535859,95.83797893238832,0,2.19e-06,0.0,0.00031271,999,10860,1 57643U 23122M   25210.45666627  .00000219  00000+0  31271-4 0  9996,2 57643  43.0016 227.4639 0001484 281.2122  78.8554 15.02535859108604,important
STARLINK-30247,celestrak_active,2025-07-29T17:08:40.691923,57644,U,2023,122,N,2025,210.52647426,43.002,227.1321,0.0001417,276.913,83.1551,15.02535539,95.83799934332202,0,-1.3e-07,0.0,0.00014118,999,10861,1 57644U 23122N   25210.52647426 -.00000013  00000+0  14118-4 0  9995,2 57644  43.0020 227.1321 0001417 276.9130  83.1551 15.02535539108613,important
STARLINK-30277,celestrak_active,2025-07-29T17:08:40.691929,57645,U,2023,122,P,2025,210.50303094,43.0055,130.8428,0.0001391,264.8774,95.1919,15.27591245,94.26605479137844,0,4.16e-06,0.0,0.00024641,999,10974,1 57645U 23122P   25210.50303094  .00000416  00000+0  24641-4 0  9992,2 57645  43.0055 130.8428 0001391 264.8774  95.1919 15.27591245109740,important
STARLINK-30265,celestrak_active,2025-07-29T17:08:40.691934,57646,U,2023,122,Q,2025,210.53646201,43.0025,227.2019,0.0001299,282.9502,77.1195,15.02535973,95.83797166099531,0,2.89e-06,0.0,0.00036486,999,10861,1 57646U 23122Q   25210.53646201  .00000289  00000+0  36486-4 0  9994,2 57646  43.0025 227.2019 0001299 282.9502  77.1195 15.02535973108612,important
STARLINK-30286,celestrak_active,2025-07-29T17:08:40.691941,57647,U,2023,122,R,2025,210.45333559,43.0024,227.4346,0.0001393,282.557,77.5117,15.02534828,95.83804469389645,0,3.9e-07,0.0,0.00017992,999,10860,1 57647U 23122R   25210.45333559  .00000039  00000+0  17992-4 0  9999,2 57647  43.0024 227.4346 0001393 282.5570  77.5117 15.02534828108608,important
STARLINK-30243,celestrak_active,2025-07-29T17:08:40.691946,57648,U,2023,122,S,2025,210.50649273,43.0016,226.98,0.0001666,285.3292,74.7366,15.02538034,95.83784020205374,0,2.93e-06,0.0,0.00036784000000000003,999,10861,1 57648U 23122S   25210.50649273  .00000293  00000+0  36784-4 0  9991,2 57648  43.0016 226.9800 0001666 285.3292  74.7366 15.02538034108613,important
STARLINK-30299,celestrak_active,2025-07-29T17:08:40.691953,57650,U,2023,122,U,2025,210.45001373,43.0025,227.4123,0.0001933,286.1257,73.9373,15.02547254,95.83725211746318,0,1.017e-05,0.0,0.0009031700000000001,999,10860,1 57650U 23122U   25210.45001373  .00001017  00000+0  90317-4 0  9998,2 57650  43.0025 227.4123 0001933 286.1257  73.9373 15.02547254108609,important
STARLINK-30294,celestrak_active,2025-07-29T17:08:40.691958,57651,U,2023,122,V,2025,210.44364514,43.0024,214.6479,0.0001271,291.8813,68.1894,15.02545744,95.83734843017199,0,4.726e-05,0.0,0.0036461,999,10875,1 57651U 23122V   25210.44364514  .00004726  00000+0  36461-3 0  9996,2 57651  43.0024 214.6479 0001271 291.8813  68.1894 15.02545744108759,important
STARLINK-30276,celestrak_active,2025-07-29T17:08:40.691964,57652,U,2023,122,W,2025,210.50982273,43.0023,227.0017,0.0001761,286.0079,74.0569,15.02536865,95.83791476557215,0,-2.73e-06,0.0,-5.1446e-05,999,10861,1 57652U 23122W   25210.50982273 -.00000273  00000+0 -51446-5 0  9999,2 57652  43.0023 227.0017 0001761 286.0079  74.0569 15.02536865108613,important
STARLINK-30289,celestrak_active,2025-07-29T17:08:40.691969,57653,U,2023,122,X,2025,210.38048789,43.0022,214.9844,0.0001603,307.1257,52.9439,15.02535028,95.83803193704979,0,1.3e-07,0.0,0.00016027,999,10874,1 57653U 23122X   25210.38048789  .00000013  00000+0  16027-4 0  9996,2 57653  43.0022 214.9844 0001603 307.1257  52.9439 15.02535028108749,important
STARLINK-30267,celestrak_active,2025-07-29T17:08:40.691980,57663,U,2023,124,A,2025,210.56803021,53.1588,163.4089,0.0001236,92.6261,267.4881,15.30195163,94.10564317670635,0,3.73e-06,0.0,0.00024738000000000006,999,10940,1 57663U 23124A   25210.56803021  .00000373  00000+0  24738-4 0  9994,2 57663  53.1588 163.4089 0001236  92.6261 267.4881 15.30195163109402,important
STARLINK-30298,celestrak_active,2025-07-29T17:08:40.691986,57665,U,2023,124,C,2025,210.2435722,53.1589,164.9546,0.0001212,91.4767,268.6372,15.30219504,94.10414625064143,0,5.017e-05,0.0,0.0018128,999,10935,1 57665U 23124C   25210.24357220  .00005017  00000+0  18128-3 0  9991,2 57665  53.1589 164.9546 0001212  91.4767 268.6372 15.30219504109359,important
STARLINK-30301,celestrak_active,2025-07-29T17:08:40.691991,57666,U,2023,124,D,2025,210.33850138,53.1598,226.2571,8.59e-05,73.5081,286.6014,15.30205418,94.10501250754295,0,1.78e-06,0.0,0.00018140000000000002,999,10847,1 57666U 23124D   25210.33850138  .00000178  00000+0  18140-4 0  9996,2 57666  53.1598 226.2571 0000859  73.5081 286.6014 15.30205418108470,important
STARLINK-30275,celestrak_active,2025-07-29T17:08:40.691997,57667,U,2023,124,E,2025,210.26253159,53.1595,164.8722,0.0001283,94.5128,265.6019,15.30192312,94.10581851100034,0,2.58e-06,0.0,0.00020839,999,10935,1 57667U 23124E   25210.26253159  .00000258  00000+0  20839-4 0  9996,2 57667  53.1595 164.8722 0001283  94.5128 265.6019 15.30192312109358,important
STARLINK-30278,celestrak_active,2025-07-29T17:08:40.692003,57668,U,2023,124,F,2025,210.58383399,53.1597,163.3476,0.0001376,94.0006,266.1152,15.30192034,94.10583560782018,0,1.5e-07,0.0,0.00012627,999,10940,1 57668U 23124F   25210.58383399  .00000015  00000+0  12627-4 0  9999,2 57668  53.1597 163.3476 0001376  94.0006 266.1152 15.30192034109405,important
STARLINK-30271,celestrak_active,2025-07-29T17:08:40.692009,57669,U,2023,124,G,2025,210.14032713,53.1602,165.4195,0.0001537,89.7026,270.4151,15.30192398,94.10581322205732,0,1.36e-06,0.0,0.0001672,999,10933,1 57669U 23124G   25210.14032713  .00000136  00000+0  16720-4 0  9995,2 57669  53.1602 165.4195 0001537  89.7026 270.4151 15.30192398109338,important
STARLINK-30322,celestrak_active,2025-07-29T17:08:40.692014,57670,U,2023,124,H,2025,210.26147584,53.1602,164.8722,0.0001396,94.5882,265.5279,15.30192454,94.10580977809475,0,5.32e-06,0.0,0.00030106,999,10935,1 57670U 23124H   25210.26147584  .00000532  00000+0  30106-4 0  9997,2 57670  53.1602 164.8722 0001396  94.5882 265.5279 15.30192454109357,important
STARLINK-30296,celestrak_active,2025-07-29T17:08:40.692020,57671,U,2023,124,J,2025,210.57115405,53.1592,163.3811,0.000117,96.9337,263.1796,15.30226262,94.10373065470236,0,3.839e-05,0.0,0.0014156,999,10940,1 57671U 23124J   25210.57115405  .00003839  00000+0  14156-3 0  9998,2 57671  53.1592 163.3811 0001170  96.9337 263.1796 15.30226262109409,important
